start=new Date('2023-04-08T00:00:00.000Z').valueOf();
sats=[{"TLE_LINE2":"2 53004  53.2187 204.9908 0001671 106.6046 253.5130 15.08843115 41730","ARG_OF_PERICENTER":"106.6046","BSTAR":"0.00018862000000","PERIOD":"95.437","REF_FRAME":"TEME","MEAN_MOTION":"15.08843115","REV_AT_EPOCH":"4173","EPHEMERIS_TYPE":"0","TLE_LINE1":"1 53004U 22076U   23097.48455351  .00002715  00000-0  18862-3 0  9998","ELEMENT_SET_NO":"999","TIME_SYSTEM":"UTC","OBJECT_TYPE":"PAYLOAD","PERIAPSIS":"538.580","INCLINATION":"53.2187","MEAN_ANOMALY":"253.5130","CENTER_NAME":"EARTH","GP_ID":"229684618","FILE":"3882626","MEAN_MOTION_DOT":"0.00002715","MEAN_MOTION_DDOT":"0.0000000000000","APOAPSIS":"540.892","NORAD_CAT_ID":"53004","EPOCH":"2023-04-07T11:37:45.423264","CLASSIFICATION_TYPE":"U","RA_OF_ASC_NODE":"204.9908","OBJECT_NAME":"STARLINK-4253","MEAN_ELEMENT_THEORY":"SGP4","SITE":"AFETR","DECAY_DATE":null,"ECCENTRICITY":"0.00016710","RCS_SIZE":"LARGE","COUNTRY_CODE":"US","LAUNCH_DATE":"2022-07-07","SEMIMAJOR_AXIS":"6917.871","OBJECT_ID":"2022-076U"},{"CLASSIFICATION_TYPE":"U","RA_OF_ASC_NODE":"205.0731","MEAN_ELEMENT_THEORY":"SGP4","OBJECT_NAME":"STARLINK-4288","RCS_SIZE":"LARGE","DECAY_DATE":null,"ECCENTRICITY":"0.00012520","SITE":"AFETR","SEMIMAJOR_AXIS":"6917.866","OBJECT_ID":"2022-076V","COUNTRY_CODE":"US","LAUNCH_DATE":"2022-07-07","PERIAPSIS":"538.864","MEAN_ANOMALY":"250.1302","INCLINATION":"53.2163","GP_ID":"229684869","CENTER_NAME":"EARTH","MEAN_MOTION_DDOT":"0.0000000000000","APOAPSIS":"540.597","FILE":"3882626","MEAN_MOTION_DOT":"0.00003691","EPOCH":"2023-04-07T11:11:15.463680","NORAD_CAT_ID":"53005","PERIOD":"95.437","MEAN_MOTION":"15.08844837","REF_FRAME":"TEME","REV_AT_EPOCH":"4173","EPHEMERIS_TYPE":"0","TLE_LINE1":"1 53005U 22076V   23097.46615120  .00003691  00000-0  24981-3 0  9992","ELEMENT_SET_NO":"999","TIME_SYSTEM":"UTC","OBJECT_TYPE":"PAYLOAD","BSTAR":"0.00024981000000","TLE_LINE2":"2 53005  53.2163 205.0731 0001252 109.9825 250.1302 15.08844837 41733","ARG_OF_PERICENTER":"109.9825"},{"CENTER_NAME":"EARTH","GP_ID":"229685616","INCLINATION":"53.2151","PERIAPSIS":"538.919","MEAN_ANOMALY":"259.5682","EPOCH":"2023-04-07T11:21:51.616512","NORAD_CAT_ID":"53006","MEAN_MOTION_DDOT":"0.0000000000000","APOAPSIS":"540.596","FILE":"3882626","MEAN_MOTION_DOT":"-0.00000068","MEAN_ELEMENT_THEORY":"SGP4","OBJECT_NAME":"STARLINK-4290","CLASSIFICATION_TYPE":"U","RA_OF_ASC_NODE":"205.0408","SEMIMAJOR_AXIS":"6917.893","OBJECT_ID":"2022-076W","COUNTRY_CODE":"US","LAUNCH_DATE":"2022-07-07","RCS_SIZE":"LARGE","DECAY_DATE":null,"ECCENTRICITY":"0.00012120","SITE":"AFETR","BSTAR":"0.00001381900000","TLE_LINE2":"2 53006  53.2151 205.0408 0001212 100.5447 259.5682 15.08835909 41739","ARG_OF_PERICENTER":"100.5447","REV_AT_EPOCH":"4173","EPHEMERIS_TYPE":"0","TLE_LINE1":"1 53006U 22076W   23097.47351408 -.00000068  00000-0  13819-4 0  9995","ELEMENT_SET_NO":"999","PERIOD":"95.438","REF_FRAME":"TEME","MEAN_MOTION":"15.08835909","OBJECT_TYPE":"PAYLOAD","TIME_SYSTEM":"UTC"},{"SITE":"AFETR","DECAY_DATE":null,"ECCENTRICITY":"0.00015160","RCS_SIZE":"LARGE","COUNTRY_CODE":"US","LAUNCH_DATE":"2022-07-07","SEMIMAJOR_AXIS":"6917.875","OBJECT_ID":"2022-076X","CLASSIFICATION_TYPE":"U","RA_OF_ASC_NODE":"204.8092","OBJECT_NAME":"STARLINK-4215","MEAN_ELEMENT_THEORY":"SGP4","FILE":"3882626","MEAN_MOTION_DOT":"0.00000968","MEAN_MOTION_DDOT":"0.0000000000000","APOAPSIS":"540.789","NORAD_CAT_ID":"53007","EPOCH":"2023-04-07T12:36:02.676672","MEAN_ANOMALY":"267.3908","PERIAPSIS":"538.691","INCLINATION":"53.2167","CENTER_NAME":"EARTH","GP_ID":"229683869","TIME_SYSTEM":"UTC","OBJECT_TYPE":"PAYLOAD","PERIOD":"95.437","REF_FRAME":"TEME","MEAN_MOTION":"15.08841702","REV_AT_EPOCH":"4174","TLE_LINE1":"1 53007U 22076X   23097.52503098  .00000968  00000-0  78881-4 0  9994","ELEMENT_SET_NO":"999","EPHEMERIS_TYPE":"0","TLE_LINE2":"2 53007  53.2167 204.8092 0001516  92.7258 267.3908 15.08841702 41749","ARG_OF_PERICENTER":"92.7258","BSTAR":"0.00007888100000"},{"CENTER_NAME":"EARTH","GP_ID":"229684119","PERIAPSIS":"538.471","INCLINATION":"53.2173","MEAN_ANOMALY":"245.6793","NORAD_CAT_ID":"53008","EPOCH":"2023-04-07T11:07:20.440128","FILE":"3882626","MEAN_MOTION_DOT":"0.00001182","MEAN_MOTION_DDOT":"0.0000000000000","APOAPSIS":"541.032","OBJECT_NAME":"STARLINK-4275","MEAN_ELEMENT_THEORY":"SGP4","CLASSIFICATION_TYPE":"U","RA_OF_ASC_NODE":"205.0853","COUNTRY_CODE":"US","LAUNCH_DATE":"2022-07-07","SEMIMAJOR_AXIS":"6917.886","OBJECT_ID":"2022-076Y","SITE":"AFETR","DECAY_DATE":null,"ECCENTRICITY":"0.00018510","RCS_SIZE":"LARGE","TLE_LINE2":"2 53008  53.2173 205.0853 0001851 114.4393 245.6793 15.08838052 41733","ARG_OF_PERICENTER":"114.4393","BSTAR":"0.00009238300000","REV_AT_EPOCH":"4173","TLE_LINE1":"1 53008U 22076Y   23097.46343102  .00001182  00000-0  92383-4 0  9998","EPHEMERIS_TYPE":"0","ELEMENT_SET_NO":"999","PERIOD":"95.438","MEAN_MOTION":"15.08838052","REF_FRAME":"TEME","OBJECT_TYPE":"PAYLOAD","TIME_SYSTEM":"UTC"},{"ARG_OF_PERICENTER":"84.2922","TLE_LINE2":"2 53009  53.2155 194.8709 0001075  84.2922 275.8193 15.08844207 41872","BSTAR":"0.00020901000000","TIME_SYSTEM":"UTC","OBJECT_TYPE":"PAYLOAD","REF_FRAME":"TEME","MEAN_MOTION":"15.08844207","PERIOD":"95.437","EPHEMERIS_TYPE":"0","TLE_LINE1":"1 53009U 22076Z   23097.51123332  .00003041  00000-0  20901-3 0  9998","ELEMENT_SET_NO":"999","REV_AT_EPOCH":"4187","MEAN_MOTION_DOT":"0.00003041","FILE":"3882626","APOAPSIS":"540.476","MEAN_MOTION_DDOT":"0.0000000000000","NORAD_CAT_ID":"53009","EPOCH":"2023-04-07T12:16:10.558848","PERIAPSIS":"538.989","MEAN_ANOMALY":"275.8193","INCLINATION":"53.2155","GP_ID":"229685370","CENTER_NAME":"EARTH","SITE":"AFETR","DECAY_DATE":null,"ECCENTRICITY":"0.00010750","RCS_SIZE":"LARGE","LAUNCH_DATE":"2022-07-07","COUNTRY_CODE":"US","OBJECT_ID":"2022-076Z","SEMIMAJOR_AXIS":"6917.868","RA_OF_ASC_NODE":"194.8709","CLASSIFICATION_TYPE":"U","OBJECT_NAME":"STARLINK-4277","MEAN_ELEMENT_THEORY":"SGP4"},{"COUNTRY_CODE":"US","LAUNCH_DATE":"2022-07-07","SEMIMAJOR_AXIS":"6917.853","OBJECT_ID":"2022-076AA","DECAY_DATE":null,"ECCENTRICITY":"0.00014110","SITE":"AFETR","RCS_SIZE":"LARGE","OBJECT_NAME":"STARLINK-4263","MEAN_ELEMENT_THEORY":"SGP4","CLASSIFICATION_TYPE":"U","RA_OF_ASC_NODE":"205.0891","NORAD_CAT_ID":"53010","EPOCH":"2023-04-07T11:05:57.896160","FILE":"3882626","MEAN_MOTION_DOT":"0.00005320","MEAN_MOTION_DDOT":"0.0000000000000","APOAPSIS":"540.694","GP_ID":"229685116","CENTER_NAME":"EARTH","MEAN_ANOMALY":"257.4951","PERIAPSIS":"538.742","INCLINATION":"53.2177","OBJECT_TYPE":"PAYLOAD","TIME_SYSTEM":"UTC","REV_AT_EPOCH":"4173","TLE_LINE1":"1 53010U 22076AA  23097.46247565  .00005320  00000-0  35203-3 0  9992","ELEMENT_SET_NO":"999","EPHEMERIS_TYPE":"0","PERIOD":"95.437","MEAN_MOTION":"15.08849045","REF_FRAME":"TEME","TLE_LINE2":"2 53010  53.2177 205.0891 0001411 102.6199 257.4951 15.08849045 41738","ARG_OF_PERICENTER":"102.6199","BSTAR":"0.00035203000000"},{"CLASSIFICATION_TYPE":"U","RA_OF_ASC_NODE":"194.8862","MEAN_ELEMENT_THEORY":"SGP4","OBJECT_NAME":"STARLINK-4265","RCS_SIZE":"LARGE","DECAY_DATE":null,"SITE":"AFETR","ECCENTRICITY":"0.00009890","SEMIMAJOR_AXIS":"6917.863","OBJECT_ID":"2022-076AB","COUNTRY_CODE":"US","LAUNCH_DATE":"2022-07-07","MEAN_ANOMALY":"250.5597","PERIAPSIS":"539.044","INCLINATION":"53.2148","CENTER_NAME":"EARTH","GP_ID":"229684370","MEAN_MOTION_DDOT":"0.0000000000000","APOAPSIS":"540.412","FILE":"3882626","MEAN_MOTION_DOT":"0.00005652","EPOCH":"2023-04-07T12:10:52.428000","NORAD_CAT_ID":"53011","PERIOD":"95.437","MEAN_MOTION":"15.08845758","REF_FRAME":"TEME","REV_AT_EPOCH":"4187","TLE_LINE1":"1 53011U 22076AB  23097.50755125  .00005652  00000-0  37287-3 0  9996","EPHEMERIS_TYPE":"0","ELEMENT_SET_NO":"999","TIME_SYSTEM":"UTC","OBJECT_TYPE":"PAYLOAD","BSTAR":"0.00037287000000","TLE_LINE2":"2 53011  53.2148 194.8862 0000989 109.5502 250.5597 15.08845758 41875","ARG_OF_PERICENTER":"109.5502"},{"CLASSIFICATION_TYPE":"U","RA_OF_ASC_NODE":"204.8269","OBJECT_NAME":"STARLINK-4271","MEAN_ELEMENT_THEORY":"SGP4","SITE":"AFETR","DECAY_DATE":null,"ECCENTRICITY":"0.00015660","RCS_SIZE":"LARGE","COUNTRY_CODE":"US","LAUNCH_DATE":"2022-07-07","SEMIMAJOR_AXIS":"6917.888","OBJECT_ID":"2022-076AC","PERIAPSIS":"538.670","MEAN_ANOMALY":"264.7994","INCLINATION":"53.2161","GP_ID":"229684619","CENTER_NAME":"EARTH","FILE":"3882626","MEAN_MOTION_DOT":"0.00000651","MEAN_MOTION_DDOT":"0.0000000000000","APOAPSIS":"540.836","NORAD_CAT_ID":"53012","EPOCH":"2023-04-07T12:30:44.932896","PERIOD":"95.438","REF_FRAME":"TEME","MEAN_MOTION":"15.08837517","REV_AT_EPOCH":"4174","EPHEMERIS_TYPE":"0","TLE_LINE1":"1 53012U 22076AC  23097.52135339  .00000651  00000-0  58985-4 0  9991","ELEMENT_SET_NO":"999","TIME_SYSTEM":"UTC","OBJECT_TYPE":"PAYLOAD","TLE_LINE2":"2 53012  53.2161 204.8269 0001566  95.3177 264.7994 15.08837517 41744","ARG_OF_PERICENTER":"95.3177","BSTAR":"0.00005898500000"},{"OBJECT_NAME":"STARLINK-4177","MEAN_ELEMENT_THEORY":"SGP4","CLASSIFICATION_TYPE":"U","RA_OF_ASC_NODE":"194.9216","COUNTRY_CODE":"US","LAUNCH_DATE":"2022-07-07","SEMIMAJOR_AXIS":"6917.856","OBJECT_ID":"2022-076AD","DECAY_DATE":null,"ECCENTRICITY":"0.00013840","SITE":"AFETR","RCS_SIZE":"LARGE","GP_ID":"229684870","CENTER_NAME":"EARTH","MEAN_ANOMALY":"268.3805","PERIAPSIS":"538.763","INCLINATION":"53.2159","NORAD_CAT_ID":"53013","EPOCH":"2023-04-07T12:00:16.610400","FILE":"3882626","MEAN_MOTION_DOT":"-0.00001181","MEAN_MOTION_DDOT":"0.0000000000000","APOAPSIS":"540.678","REV_AT_EPOCH":"4187","ELEMENT_SET_NO":"999","TLE_LINE1":"1 53013U 22076AD  23097.50019225 -.00001181  00000-0 -56089-4 0  9999","EPHEMERIS_TYPE":"0","PERIOD":"95.437","REF_FRAME":"TEME","MEAN_MOTION":"15.08848126","OBJECT_TYPE":"PAYLOAD","TIME_SYSTEM":"UTC","TLE_LINE2":"2 53013  53.2159 194.9216 0001384  91.7345 268.3805 15.08848126 41871","ARG_OF_PERICENTER":"91.7345","BSTAR":"-0.00005608900000"}];
